<?xml version="1.0" encoding="UTF-8"?>
<ndm xmlns:xsi="http://www.w3.org/2001/XMLSchema-instance" xsi:noNamespaceSchemaLocation="https://sanaregistry.org/r/ndmxml_unqualified/ndmxml-2.0.0-master-2.0.xsd">
<omm id="CCSDS_OMM_VERS" version="2.0">
<header><CREATION_DATE/><ORIGINATOR/></header><body><segment><metadata><OBJECT_NAME>KUIPER-00079</OBJECT_NAME><OBJECT_ID>2025-151L</OBJECT_ID><CENTER_NAME>EARTH</CENTER_NAME><REF_FRAME>TEME</REF_FRAME><TIME_SYSTEM>UTC</TIME_SYSTEM><MEAN_ELEMENT_THEORY>SGP4</MEAN_ELEMENT_THEORY></metadata><data><meanElements><EPOCH>2025-10-24T02:49:50.778048</EPOCH><MEAN_MOTION>14.79951720</MEAN_MOTION><ECCENTRICITY>.00126923</ECCENTRICITY><INCLINATION>51.8986</INCLINATION><RA_OF_ASC_NODE>184.1924</RA_OF_ASC_NODE><ARG_OF_PERICENTER>144.2162</ARG_OF_PERICENTER><MEAN_ANOMALY>215.9653</MEAN_ANOMALY></meanElements><tleParameters><EPHEMERIS_TYPE>0</EPHEMERIS_TYPE><CLASSIFICATION_TYPE>U</CLASSIFICATION_TYPE><NORAD_CAT_ID>64826</NORAD_CAT_ID><ELEMENT_SET_NO>999</ELEMENT_SET_NO><REV_AT_EPOCH>1628</REV_AT_EPOCH><BSTAR>.69199796E-3</BSTAR><MEAN_MOTION_DOT>.5064E-4</MEAN_MOTION_DOT><MEAN_MOTION_DDOT>0</MEAN_MOTION_DDOT></tleParameters></data></segment></body></omm>
<omm id="CCSDS_OMM_VERS" version="2.0">
<header><CREATION_DATE/><ORIGINATOR/></header><body><segment><metadata><OBJECT_NAME>KUIPER-00080</OBJECT_NAME><OBJECT_ID>2025-151M</OBJECT_ID><CENTER_NAME>EARTH</CENTER_NAME><REF_FRAME>TEME</REF_FRAME><TIME_SYSTEM>UTC</TIME_SYSTEM><MEAN_ELEMENT_THEORY>SGP4</MEAN_ELEMENT_THEORY></metadata><data><meanElements><EPOCH>2025-10-23T23:28:39.260352</EPOCH><MEAN_MOTION>14.79921057</MEAN_MOTION><ECCENTRICITY>.0005614</ECCENTRICITY><INCLINATION>51.9004</INCLINATION><RA_OF_ASC_NODE>185.1112</RA_OF_ASC_NODE><ARG_OF_PERICENTER>160.7110</ARG_OF_PERICENTER><MEAN_ANOMALY>199.4066</MEAN_ANOMALY></meanElements><tleParameters><EPHEMERIS_TYPE>0</EPHEMERIS_TYPE><CLASSIFICATION_TYPE>U</CLASSIFICATION_TYPE><NORAD_CAT_ID>64827</NORAD_CAT_ID><ELEMENT_SET_NO>999</ELEMENT_SET_NO><REV_AT_EPOCH>1506</REV_AT_EPOCH><BSTAR>-.97638785E-3</BSTAR><MEAN_MOTION_DOT>-.7657E-4</MEAN_MOTION_DOT><MEAN_MOTION_DDOT>0</MEAN_MOTION_DDOT></tleParameters></data></segment></body></omm>
<omm id="CCSDS_OMM_VERS" version="2.0">
<header><CREATION_DATE/><ORIGINATOR/></header><body><segment><metadata><OBJECT_NAME>KUIPER-00082</OBJECT_NAME><OBJECT_ID>2025-151N</OBJECT_ID><CENTER_NAME>EARTH</CENTER_NAME><REF_FRAME>TEME</REF_FRAME><TIME_SYSTEM>UTC</TIME_SYSTEM><MEAN_ELEMENT_THEORY>SGP4</MEAN_ELEMENT_THEORY></metadata><data><meanElements><EPOCH>2025-10-24T08:00:01.999872</EPOCH><MEAN_MOTION>14.88110543</MEAN_MOTION><ECCENTRICITY>.00050114</ECCENTRICITY><INCLINATION>51.8975</INCLINATION><RA_OF_ASC_NODE>171.2289</RA_OF_ASC_NODE><ARG_OF_PERICENTER>174.5591</ARG_OF_PERICENTER><MEAN_ANOMALY>287.1310</MEAN_ANOMALY></meanElements><tleParameters><EPHEMERIS_TYPE>0</EPHEMERIS_TYPE><CLASSIFICATION_TYPE>U</CLASSIFICATION_TYPE><NORAD_CAT_ID>64828</NORAD_CAT_ID><ELEMENT_SET_NO>999</ELEMENT_SET_NO><REV_AT_EPOCH>260</REV_AT_EPOCH><BSTAR>-.16384697E-1</BSTAR><MEAN_MOTION_DOT>-.149305E-2</MEAN_MOTION_DOT><MEAN_MOTION_DDOT>0</MEAN_MOTION_DDOT></tleParameters></data></segment></body></omm>
<omm id="CCSDS_OMM_VERS" version="2.0">
<header><CREATION_DATE/><ORIGINATOR/></header><body><segment><metadata><OBJECT_NAME>KUIPER-00083</OBJECT_NAME><OBJECT_ID>2025-151P</OBJECT_ID><CENTER_NAME>EARTH</CENTER_NAME><REF_FRAME>TEME</REF_FRAME><TIME_SYSTEM>UTC</TIME_SYSTEM><MEAN_ELEMENT_THEORY>SGP4</MEAN_ELEMENT_THEORY></metadata><data><meanElements><EPOCH>2025-10-24T02:02:21.969600</EPOCH><MEAN_MOTION>14.79934105</MEAN_MOTION><ECCENTRICITY>.00109795</ECCENTRICITY><INCLINATION>51.8984</INCLINATION><RA_OF_ASC_NODE>179.6443</RA_OF_ASC_NODE><ARG_OF_PERICENTER>150.0305</ARG_OF_PERICENTER><MEAN_ANOMALY>210.1288</MEAN_ANOMALY></meanElements><tleParameters><EPHEMERIS_TYPE>0</EPHEMERIS_TYPE><CLASSIFICATION_TYPE>U</CLASSIFICATION_TYPE><NORAD_CAT_ID>64829</NORAD_CAT_ID><ELEMENT_SET_NO>999</ELEMENT_SET_NO><REV_AT_EPOCH>1633</REV_AT_EPOCH><BSTAR>.63598222E-3</BSTAR><MEAN_MOTION_DOT>.4633E-4</MEAN_MOTION_DOT><MEAN_MOTION_DDOT>0</MEAN_MOTION_DDOT></tleParameters></data></segment></body></omm>
<omm id="CCSDS_OMM_VERS" version="2.0">
<header><CREATION_DATE/><ORIGINATOR/></header><body><segment><metadata><OBJECT_NAME>KUIPER-00084</OBJECT_NAME><OBJECT_ID>2025-151Q</OBJECT_ID><CENTER_NAME>EARTH</CENTER_NAME><REF_FRAME>TEME</REF_FRAME><TIME_SYSTEM>UTC</TIME_SYSTEM><MEAN_ELEMENT_THEORY>SGP4</MEAN_ELEMENT_THEORY></metadata><data><meanElements><EPOCH>2025-10-24T00:09:48.932640</EPOCH><MEAN_MOTION>14.79949251</MEAN_MOTION><ECCENTRICITY>.00120608</ECCENTRICITY><INCLINATION>51.8985</INCLINATION><RA_OF_ASC_NODE>189.9795</RA_OF_ASC_NODE><ARG_OF_PERICENTER>123.2775</ARG_OF_PERICENTER><MEAN_ANOMALY>236.9344</MEAN_ANOMALY></meanElements><tleParameters><EPHEMERIS_TYPE>0</EPHEMERIS_TYPE><CLASSIFICATION_TYPE>U</CLASSIFICATION_TYPE><NORAD_CAT_ID>64830</NORAD_CAT_ID><ELEMENT_SET_NO>999</ELEMENT_SET_NO><REV_AT_EPOCH>1499</REV_AT_EPOCH><BSTAR>.85394925E-3</BSTAR><MEAN_MOTION_DOT>.6302E-4</MEAN_MOTION_DOT><MEAN_MOTION_DDOT>0</MEAN_MOTION_DDOT></tleParameters></data></segment></body></omm>
<omm id="CCSDS_OMM_VERS" version="2.0">
<header><CREATION_DATE/><ORIGINATOR/></header><body><segment><metadata><OBJECT_NAME>KUIPER-00085</OBJECT_NAME><OBJECT_ID>2025-151R</OBJECT_ID><CENTER_NAME>EARTH</CENTER_NAME><REF_FRAME>TEME</REF_FRAME><TIME_SYSTEM>UTC</TIME_SYSTEM><MEAN_ELEMENT_THEORY>SGP4</MEAN_ELEMENT_THEORY></metadata><data><meanElements><EPOCH>2025-10-24T08:00:01.999872</EPOCH><MEAN_MOTION>14.90412105</MEAN_MOTION><ECCENTRICITY>.00084489</ECCENTRICITY><INCLINATION>51.9062</INCLINATION><RA_OF_ASC_NODE>171.3083</RA_OF_ASC_NODE><ARG_OF_PERICENTER>147.8902</ARG_OF_PERICENTER><MEAN_ANOMALY>128.5208</MEAN_ANOMALY></meanElements><tleParameters><EPHEMERIS_TYPE>0</EPHEMERIS_TYPE><CLASSIFICATION_TYPE>U</CLASSIFICATION_TYPE><NORAD_CAT_ID>64831</NORAD_CAT_ID><ELEMENT_SET_NO>999</ELEMENT_SET_NO><REV_AT_EPOCH>474</REV_AT_EPOCH><BSTAR>-.15295088E-1</BSTAR><MEAN_MOTION_DOT>-.147711E-2</MEAN_MOTION_DOT><MEAN_MOTION_DDOT>0</MEAN_MOTION_DDOT></tleParameters></data></segment></body></omm>
<omm id="CCSDS_OMM_VERS" version="2.0">
<header><CREATION_DATE/><ORIGINATOR/></header><body><segment><metadata><OBJECT_NAME>KUIPER-00086</OBJECT_NAME><OBJECT_ID>2025-151S</OBJECT_ID><CENTER_NAME>EARTH</CENTER_NAME><REF_FRAME>TEME</REF_FRAME><TIME_SYSTEM>UTC</TIME_SYSTEM><MEAN_ELEMENT_THEORY>SGP4</MEAN_ELEMENT_THEORY></metadata><data><meanElements><EPOCH>2025-10-24T02:47:09.948768</EPOCH><MEAN_MOTION>14.79960534</MEAN_MOTION><ECCENTRICITY>.00117649</ECCENTRICITY><INCLINATION>51.9015</INCLINATION><RA_OF_ASC_NODE>182.0076</RA_OF_ASC_NODE><ARG_OF_PERICENTER>143.8729</ARG_OF_PERICENTER><MEAN_ANOMALY>216.3030</MEAN_ANOMALY></meanElements><tleParameters><EPHEMERIS_TYPE>0</EPHEMERIS_TYPE><CLASSIFICATION_TYPE>U</CLASSIFICATION_TYPE><NORAD_CAT_ID>64832</NORAD_CAT_ID><ELEMENT_SET_NO>999</ELEMENT_SET_NO><REV_AT_EPOCH>1511</REV_AT_EPOCH><BSTAR>.83806745E-3</BSTAR><MEAN_MOTION_DOT>.6182E-4</MEAN_MOTION_DOT><MEAN_MOTION_DDOT>0</MEAN_MOTION_DDOT></tleParameters></data></segment></body></omm>
<omm id="CCSDS_OMM_VERS" version="2.0">
<header><CREATION_DATE/><ORIGINATOR/></header><body><segment><metadata><OBJECT_NAME>KUIPER-00087</OBJECT_NAME><OBJECT_ID>2025-151T</OBJECT_ID><CENTER_NAME>EARTH</CENTER_NAME><REF_FRAME>TEME</REF_FRAME><TIME_SYSTEM>UTC</TIME_SYSTEM><MEAN_ELEMENT_THEORY>SGP4</MEAN_ELEMENT_THEORY></metadata><data><meanElements><EPOCH>2025-10-24T08:00:01.999872</EPOCH><MEAN_MOTION>15.14227739</MEAN_MOTION><ECCENTRICITY>.00047505</ECCENTRICITY><INCLINATION>51.8831</INCLINATION><RA_OF_ASC_NODE>166.5459</RA_OF_ASC_NODE><ARG_OF_PERICENTER>177.0274</ARG_OF_PERICENTER><MEAN_ANOMALY>62.3189</MEAN_ANOMALY></meanElements><tleParameters><EPHEMERIS_TYPE>0</EPHEMERIS_TYPE><CLASSIFICATION_TYPE>U</CLASSIFICATION_TYPE><NORAD_CAT_ID>64833</NORAD_CAT_ID><ELEMENT_SET_NO>999</ELEMENT_SET_NO><REV_AT_EPOCH>224</REV_AT_EPOCH><BSTAR>-.45176715E-1</BSTAR><MEAN_MOTION_DOT>-.774697E-2</MEAN_MOTION_DOT><MEAN_MOTION_DDOT>0</MEAN_MOTION_DDOT></tleParameters></data></segment></body></omm>

</ndm>
