KUIPER-00079            
1 64826U 25151L   25297.11794882  .00005064  00000+0  69200-3 0  9999
2 64826  51.8986 184.1924 0012692 144.2162 215.9653 14.79951720 16287
KUIPER-00080            
1 64827U 25151M   25296.97823218 -.00007657  00000+0 -97639-3 0  9998
2 64827  51.9004 185.1112 0005614 160.7110 199.4066 14.79921057 15061
KUIPER-00082            
1 64828U 25151N   25297.33335648 -.00149305  00000+0 -16385-1 0  9999
2 64828  51.8975 171.2289 0005011 174.5591 287.1310 14.88110543  2609
KUIPER-00083            
1 64829U 25151P   25297.08497650  .00004633  00000+0  63598-3 0  9996
2 64829  51.8984 179.6443 0010979 150.0305 210.1288 14.79934105 16338
KUIPER-00084            
1 64830U 25151Q   25297.00681635  .00006302  00000+0  85395-3 0  9992
2 64830  51.8985 189.9795 0012060 123.2775 236.9344 14.79949251 14998
KUIPER-00085            
1 64831U 25151R   25297.33335648 -.00147711  00000+0 -15295-1 0  9991
2 64831  51.9062 171.3083 0008448 147.8902 128.5208 14.90412105  4743
KUIPER-00086            
1 64832U 25151S   25297.11608737  .00006182  00000+0  83807-3 0  9990
2 64832  51.9015 182.0076 0011764 143.8729 216.3030 14.79960534 15114
KUIPER-00087            
1 64833U 25151T   25297.33335648 -.00774697  00000+0 -45177-1 0  9994
2 64833  51.8831 166.5459 0004750 177.0274  62.3189 15.14227739  2240
